LUCH-5V                 
1 39727U 14023A   26201.86275083 -.00000272  00000+0  00000+0 0  9998
2 39727   5.2143  69.3956 0002194  80.0835 194.4836  1.00271957 44693
KAZSAT-3                
1 39728U 14023B   26201.84372367  .00000060  00000+0  00000+0 0  9994
2 39728   0.0105 347.4771 0000055 319.2476 354.1265  1.00272594 42790
EUTELSAT 3B             
1 39773U 14030A   26201.61891875  .00000019  00000+0  00000+0 0  9991
2 39773   0.0626  14.0167 0004350 102.7069  47.5630  1.00272855 44408
ASIASAT 8 (AMOS-7)      
1 40107U 14046A   26201.85302432 -.00000333  00000+0  00000+0 0  9993
2 40107   0.0189  75.1964 0001653  31.3545 244.4649  1.00271815102483
ASIASAT 6               
1 40141U 14052A   26201.53308740 -.00000363  00000+0  00000+0 0  9994
2 40141   0.0241  83.8370 0000908  60.1824 106.1008  1.00271577 43414
OPTUS 10                
1 40146U 14054A   26201.79180082 -.00000148  00000+0  00000+0 0  9997
2 40146   0.1097  20.7444 0002000  96.8236 262.0460  1.00270867 43368
MEASAT-3B               
1 40147U 14054B   26201.77897411 -.00000242  00000+0  00000+0 0  9992
2 40147   0.0237  12.9652 0002633  68.3510 229.1803  1.00271850 43244
HIMAWARI-8              
1 40267U 14060A   26201.60739126 -.00000277  00000+0  00000+0 0  9990
2 40267   0.0153  53.1610 0001276 108.7255 135.8056  1.00270174 43096
IRNSS-1C                
1 40269U 14061A   26201.70602685 -.00000167  00000+0  00000+0 0  9991
2 40269   6.5999  88.2929 0021939   6.0783 181.3257  1.00271443 43025
INTELSAT 30 (IS-30)     
1 40271U 14062A   26201.81338093 -.00000151  00000+0  00000+0 0  9999
2 40271   0.0150  52.5146 0001751 341.2520 102.5878  1.00272290  7131
ARSAT 1                 
1 40272U 14062B   26201.81797427 -.00000260  00000+0  00000+0 0  9991
2 40272   0.0515 273.0588 0002025 196.7131  51.4781  1.00272326 42968
EUTELSAT 53A            
1 40277U 14064A   26201.41485976  .00000096  00000+0  00000+0 0  9993
2 40277   0.0147  23.4268 0001765 178.1359 298.9992  1.00273574 41903
GSAT-16                 
1 40332U 14078A   26201.84311700  .00000085  00000+0  00000+0 0  9998
2 40332   0.0173  65.1799 0007569  30.8534 201.1673  1.00271820 42447
DIRECTV 14              
1 40333U 14078B   26201.44975230 -.00000127  00000+0  00000+0 0  9997
2 40333   0.0151  57.4012 0000485 335.1034 328.3806  1.00274313 42374
YAMAL 401               
1 40345U 14082A   26201.13716819 -.00000231  00000+0  00000+0 0  9993
2 40345   0.0175 145.8925 0000391 268.5759  22.7631  1.00273803 42247
ASTRA 2G                
1 40364U 14089A   26201.86294771  .00000149  00000+0  00000+0 0  9996
2 40364   0.0602  39.0085 0004574  39.1633 199.2831  1.00271697 42302
FENGYUN 2G              
1 40367U 14090A   26200.64000413 -.00000309  00000+0  00000+0 0  9993
2 40367   5.7192  72.4242 0003943 173.6464  21.2039  1.00279249 42329
MUOS-3                  
1 40374U 15002A   26201.82915433 -.00000131  00000+0  00000+0 0  9996
2 40374   4.5836  43.6422 0053973 177.0342   0.9107  1.00273222 41920
INMARSAT 5-F2           
1 40384U 15005A   26201.74996705 -.00000286  00000+0  00000+0 0  9993
2 40384   0.0196  60.9123 0000659  57.5203  35.0769  1.00271538 41338
ABS-3A                  
1 40424U 15010A   26201.83158100 -.00000027  00000+0  00000+0 0  9996
2 40424   0.0134  49.6135 0001604  14.4111 170.9860  1.00270984 41710
EUTELSAT 115 WEST B     
1 40425U 15010B   26201.66681941 -.00000026  00000+0  00000+0 0  9991
2 40425   0.0034 167.8220 0000528 236.5109  19.2556  1.00272508 41717
EXPRESS-AM7             
1 40505U 15012A   26201.84008367  .00000150  00000+0  00000+0 0  9994
2 40505   0.0209  79.5920 0002987  45.3977 156.0312  1.00273793 41342
BEIDOU-3S IGSO-1S       
1 40549U 15019A   26183.80025122 -.00000190  00000+0  00000+0 0  9997
2 40549  49.1798 295.2769 0076860 219.1125 144.2493  1.00680073 41232
THOR 7                  
1 40613U 15022A   26201.83201433 -.00000009  00000+0  00000+0 0  9997
2 40613   0.0031 285.0331 0002741 191.1212 121.3190  1.00270480 41153
TURKMENALEM52E/MONACOSAT
1 40617U 15023A   26201.84251035  .00000103  00000+0  00000+0 0  9990
2 40617   0.0453  87.2942 0002877  37.5799 169.0580  1.00274109 41185
DIRECTV 15              
1 40663U 15026A   26201.66924609 -.00000103  00000+0  00000+0 0  9999
2 40663   0.0204  79.1591 0000383 332.8671  24.4550  1.00271127 40794
SKY MEXICO-1            
1 40664U 15026B   26201.81658759 -.00000234  00000+0  00000+0 0  9992
2 40664   0.0313 263.8149 0002625 229.7750  20.1676  1.00270788 40794
METEOSAT-11 (MSG-4)     
1 40732U 15034A   26201.83400766  .00000060  00000+0  00000+0 0  9998
2 40732   3.2825  70.8910 0002023 355.3658 181.8591  1.00273620  7556
STAR ONE C4             
1 40733U 15034B   26201.81832095 -.00000265  00000+0  00000+0 0  9999
2 40733   0.0456 297.4334 0001681 149.2677  76.4732  1.00272843 40356
WGS F7 (USA 263)        
1 40746U 15036A   26201.58173860  .00000017  00000+0  00000+0 0  9991
2 40746   0.0159  53.8520 0000133  90.0313 178.8964  1.00271690 40209
INTELSAT 34 (IS-34)     
1 40874U 15039A   26201.74988037 -.00000286  00000+0  00000+0 0  9993
2 40874   0.0123 344.4602 0000729  41.9549 126.5734  1.00272186 39977
EUTELSAT 8 WEST B       
1 40875U 15039B   26201.83062765 -.00000066  00000+0  00000+0 0  9991
2 40875   0.0629   0.7635 0003739 113.7876 115.0731  1.00271458 39995
GSAT-6                  
1 40880U 15041A   26201.84851763 -.00000162  00000+0  00000+0 0  9992
2 40880   2.0029  82.1658 0002922  34.8343 209.6049  1.00272369 39939
INMARSAT 5-F3           
1 40882U 15042A   26201.55669507  .00000049  00000+0  00000+0 0  9999
2 40882   0.0187  60.5296 0000484  99.1851 158.6127  1.00272593 39907
MUOS-4                  
1 40887U 15044A   26201.76553016 -.00000095  00000+0  00000+0 0  9998
2 40887   4.3918  42.4253 0056493   3.7662 242.9126  1.00272026 39890
TJS-1                   
1 40892U 15046A   26201.79162750 -.00000157  00000+0  00000+0 0  9999
2 40892   0.4079  84.7663 0005239  21.3953 272.4061  1.00271443 39906
EXPRESS-AM8             
1 40895U 15048A   26201.40168637 -.00000113  00000+0  00000+0 0  9994
2 40895   0.0157 316.2182 0000286  27.7376  84.8208  1.00271434 39679
BEIDOU-3S IGSO-2S       
1 40938U 15053A   26201.63657260 -.00000104  00000+0  00000+0 0  9998
2 40938  49.1684 258.3805 0066069 193.6741 168.4716  1.00252378 39695
SKY MUSTER 1 (NBN1A)    
1 40940U 15054A   26201.85995766  .00000000  00000+0  00000+0 0  9996
2 40940   0.0110  31.5673 0001739  85.5624 271.3432  1.00269712 39592
ARSAT 2                 
1 40941U 15054B   26201.45975560 -.00000226  00000+0  00000+0 0  9994
2 40941   0.0502 269.6248 0002197 196.7997 276.3160  1.00272434 39630
MORELOS 3               
1 40946U 15056A   26201.66716608 -.00000045  00000+0  00000+0 0  9999
2 40946   3.2148  15.9138 0000613 160.3032 249.3030  1.00271271 39627
APSTAR-9                
1 40982U 15059A   26201.56225535 -.00000267  00000+0  00000+0 0  9991
2 40982   0.0366  61.5862 0003220 122.5891  98.5770  1.00270655 39456
TURKSAT 4B              
1 40984U 15060A   26201.84207700  .00000115  00000+0  00000+0 0  9991
2 40984   0.0367 241.1030 0002202 228.3654 182.2577  1.00270308 39432
ZHONGXING-2C            
1 41021U 15063A   26201.85267764 -.00000324  00000+0  00000+0 0  9997
2 41021   0.3584  88.4541 0008350  99.9066 160.6578  1.00269673 39318
GSAT-15                 
1 41028U 15065A   26201.88184671 -.00000258  00000+0  00000+0 0  9990
2 41028   0.1030 263.5234 0003563 177.9274 268.1691  1.00271852 39135
BADR-7 (ARABSAT-6B)     
1 41029U 15065B   26201.83712769  .00000144  00000+0  00000+0 0  9994
2 41029   0.0403 221.4072 0004780 341.6933  62.8398  1.00271061 39108
LAOSAT 1                
1 41034U 15067A   26201.85761765 -.00000343  00000+0  00000+0 0  9996
2 41034   0.0427 228.9613 0002780 197.7393 309.1750  1.00273495 39192
TELSTAR 12V             
1 41036U 15068A   26201.82924100 -.00000119  00000+0  00000+0 0  9991
2 41036   0.0169  77.5322 0002326  37.0519 107.5281  1.00271425 38968
ELEKTRO-L 2             
1 41105U 15074A   26201.82932766 -.00000122  00000+0  00000+0 0  9996
2 41105   6.7766  70.1096 0000803 228.6874 283.8681  1.00272327 38849
COSMOS 2513             
1 41121U 15075A   26201.84808429 -.00000139  00000+0  00000+0 0  9993
2 41121   0.0581 102.9930 0002468 346.5499 234.6356  1.00273474 38883
EXPRESS-AMU1            
1 41191U 15082A   26201.83930367  .00000000  00000+0  00000+0 0  9990
2 41191   0.0234  59.2005 0002545  62.6497 155.0060  1.00268742 38602
GAOFEN-4                
1 41194U 15083A   26201.28282259 -.00000337  00000+0  00000+0 0  9997
2 41194   0.4407  83.8785 0004167 121.8602 299.8332  1.00270897 38868
BELINTERSAT-1           
1 41238U 16001A   26201.48592905  .00000105  00000+0  00000+0 0  9993
2 41238   0.0390 242.4497 0001604 194.6138  87.6731  1.00275220 38571
IRNSS-1E                
1 41241U 16003A   26201.59020082 -.00000317  00000+0  00000+0 0  9999
2 41241  33.3040  59.2648 0019305 176.2872  27.0964  1.00275464 38415
EUTELSAT 9B             
1 41310U 16005A   26201.62013211  .00000061  00000+0  00000+0 0  9993
2 41310   0.0498  69.4800 0001261  41.9710  59.1677  1.00273076 38452
SES-9                   
1 41380U 16013A   26201.59939582 -.00000346  00000+0  00000+0 0  9990
2 41380   0.0172 329.4513 0002308 136.6189 156.3850  1.00271745 37771
EUTELSAT 65 WEST A      
1 41382U 16014A   26201.81927427 -.00000277  00000+0  00000+0 0  9996
2 41382   0.0863 299.2343 0002336 174.5872  54.5171  1.00272524 37867
IRNSS-1F                
1 41384U 16015A   26201.84489259  .00000154  00000+0  00000+0 0  9991
2 41384   5.4307  96.0065 0017800 179.6587 359.5363  1.00269245 38000
BEIDOU-2 IGSO-6         
1 41434U 16021A   26177.11016981 -.00000145  00000+0  00000+0 0  9995
2 41434  60.2385  37.9495 0057558 231.0163 137.2672  1.00258926 37578
IRNSS-1G                
1 41469U 16027A   26201.57891936 -.00000338  00000+0  00000+0 0  9992
2 41469   5.2757  96.7017 0005917  13.1561 166.5437  1.00268271 37516
